CTC1_L_00310001-01
1 10000U 25141PJ  26075.70033565  .00000000  00000+0  00000-0 0  9992
2 10000  45.0000   0.0000 0000000   0.0000   0.0000 14.60983543    16
CTC1_L_00310001-02
1 10001U 25908LX  26075.70033565  .00000000  00000+0  00000-0 0  9994
2 10001  45.0000   0.0000 0000000   0.0000  90.0000 14.60983543    16
CTC1_L_00310001-03
1 10002U 24914KW  26075.70033565  .00000000  00000+0  00000-0 0  9991
2 10002  45.0000   0.0000 0000000   0.0000 180.0000 14.60983543    17
CTC1_L_00310001-04
1 10003U 25571KN  26075.70033565  .00000000  00000+0  00000-0 0  9992
2 10003  45.0000   0.0000 0000000   0.0000 270.0000 14.60983543    18
CTC1_L_00310002-01
1 10004U 25004BW  26075.70033565  .00000000  00000+0  00000-0 0  9994
2 10004  45.0000  12.0000 0000000   0.0000  12.0000 14.60983543    16
CTC1_L_00310002-02
1 10005U 26399LZ  26075.70033565  .00000000  00000+0  00000-0 0  9993
2 10005  45.0000  12.0000 0000000   0.0000 102.0000 14.60983543    17
CTC1_L_00310002-03
1 10006U 26959AM  26075.70033565  .00000000  00000+0  00000-0 0  9996
2 10006  45.0000  12.0000 0000000   0.0000 192.0000 14.60983543    17
CTC1_L_00310002-04
1 10007U 22612EN  26075.70033565  .00000000  00000+0  00000-0 0  9999
2 10007  45.0000  12.0000 0000000   0.0000 282.0000 14.60983543    18
CTC1_L_00310003-01
1 10008U 22157MO  26075.70033565  .00000000  00000+0  00000-0 0  9994
2 10008  45.0000  24.0000 0000000   0.0000  24.0000 14.60983543    16
CTC1_L_00310003-02
1 10009U 25073BW  26075.70033565  .00000000  00000+0  00000-0 0  9995
2 10009  45.0000  24.0000 0000000   0.0000 114.0000 14.60983543    17
CTC1_L_00310003-03
1 10010U 25109HQ  26075.70033565  .00000000  00000+0  00000-0 0  9997
2 10010  45.0000  24.0000 0000000   0.0000 204.0000 14.60983543    19
CTC1_L_00310003-04
1 10011U 25141HI  26075.70033565  .00000000  00000+0  00000-0 0  9994
2 10011  45.0000  24.0000 0000000   0.0000 294.0000 14.60983543    19
CTC1_L_00310004-01
1 10012U 24596NA  26075.70033565  .00000000  00000+0  00000-0 0  9998
2 10012  45.0000  36.0000 0000000   0.0000  36.0000 14.60983543    17
CTC1_L_00310004-02
1 10013U 24586B   26075.70033565  .00000000  00000+0  00000-0 0  9998
2 10013  45.0000  36.0000 0000000   0.0000 126.0000 14.60983543    18
CTC1_L_00310004-03
1 10014U 22816PV  26075.70033565  .00000000  00000+0  00000-0 0  9993
2 10014  45.0000  36.0000 0000000   0.0000 216.0000 14.60983543    19
CTC1_L_00310004-04
1 10015U 22100UK  26075.70033565  .00000000  00000+0  00000-0 0  9990
2 10015  45.0000  36.0000 0000000   0.0000 306.0000 14.60983543    10
CTC1_L_00310005-01
1 10016U 24703IJ  26075.70033565  .00000000  00000+0  00000-0 0  9992
2 10016  45.0000  48.0000 0000000   0.0000  48.0000 14.60983543    17
CTC1_L_00310005-02
1 10017U 24003PQ  26075.70033565  .00000000  00000+0  00000-0 0  9996
2 10017  45.0000  48.0000 0000000   0.0000 138.0000 14.60983543    18
CTC1_L_00310005-03
1 10018U 22650FZ  26075.70033565  .00000000  00000+0  00000-0 0  9993
2 10018  45.0000  48.0000 0000000   0.0000 228.0000 14.60983543    19
CTC1_L_00310005-04
1 10019U 23641U   26075.70033565  .00000000  00000+0  00000-0 0  9995
2 10019  45.0000  48.0000 0000000   0.0000 318.0000 14.60983543    10
CTC1_L_00310006-01
1 10020U 22047UY  26075.70033565  .00000000  00000+0  00000-0 0  9996
2 10020  45.0000  60.0000 0000000   0.0000  60.0000 14.60983543    10
CTC1_L_00310006-02
1 10021U 26300IU  26075.70033565  .00000000  00000+0  00000-0 0  9993
2 10021  45.0000  60.0000 0000000   0.0000 150.0000 14.60983543    11
CTC1_L_00310006-03
1 10022U 24320BW  26075.70033565  .00000000  00000+0  00000-0 0  9994
2 10022  45.0000  60.0000 0000000   0.0000 240.0000 14.60983543    12
CTC1_L_00310006-04
1 10023U 24699SP  26075.70033565  .00000000  00000+0  00000-0 0  9994
2 10023  45.0000  60.0000 0000000   0.0000 330.0000 14.60983543    13
CTC1_L_00310007-01
1 10024U 22603TW  26075.70033565  .00000000  00000+0  00000-0 0  9998
2 10024  45.0000  72.0000 0000000   0.0000  72.0000 14.60983543    10
CTC1_L_00310007-02
1 10025U 25212ZJ  26075.70033565  .00000000  00000+0  00000-0 0  9998
2 10025  45.0000  72.0000 0000000   0.0000 162.0000 14.60983543    11
CTC1_L_00310007-03
1 10026U 24740FY  26075.70033565  .00000000  00000+0  00000-0 0  9994
2 10026  45.0000  72.0000 0000000   0.0000 252.0000 14.60983543    12
CTC1_L_00310007-04
1 10027U 24921XP  26075.70033565  .00000000  00000+0  00000-0 0  9996
2 10027  45.0000  72.0000 0000000   0.0000 342.0000 14.60983543    13
CTC1_L_00310008-01
1 10028U 26478NS  26075.70033565  .00000000  00000+0  00000-0 0  9996
2 10028  45.0000  84.0000 0000000   0.0000  84.0000 14.60983543    10
CTC1_L_00310008-02
1 10029U 24349UD  26075.70033565  .00000000  00000+0  00000-0 0  9992
2 10029  45.0000  84.0000 0000000   0.0000 174.0000 14.60983543    11
CTC1_L_00310008-03
1 10030U 22326HF  26075.70033565  .00000000  00000+0  00000-0 0  9997
2 10030  45.0000  84.0000 0000000   0.0000 264.0000 14.60983543    13
CTC1_L_00310008-04
1 10031U 22200IV  26075.70033565  .00000000  00000+0  00000-0 0  9999
2 10031  45.0000  84.0000 0000000   0.0000 354.0000 14.60983543    14
CTC1_L_00310009-01
1 10032U 22535MO  26075.70033565  .00000000  00000+0  00000-0 0  9991
2 10032  45.0000  96.0000 0000000   0.0000  96.0000 14.60983543    11
CTC1_L_00310009-02
1 10033U 25307ZM  26075.70033565  .00000000  00000+0  00000-0 0  9992
2 10033  45.0000  96.0000 0000000   0.0000 186.0000 14.60983543    12
CTC1_L_00310009-03
1 10034U 25395AW  26075.70033565  .00000000  00000+0  00000-0 0  9990
2 10034  45.0000  96.0000 0000000   0.0000 276.0000 14.60983543    13
CTC1_L_00310009-04
1 10035U 22278UG  26075.70033565  .00000000  00000+0  00000-0 0  9998
2 10035  45.0000  96.0000 0000000   0.0000   6.0000 14.60983543    15
CTC1_L_00310010-01
1 10036U 25893D   26075.70033565  .00000000  00000+0  00000-0 0  9995
2 10036  45.0000 108.0000 0000000   0.0000 108.0000 14.60983543    13
CTC1_L_00310010-02
1 10037U 22317VS  26075.70033565  .00000000  00000+0  00000-0 0  9994
2 10037  45.0000 108.0000 0000000   0.0000 198.0000 14.60983543    13
CTC1_L_00310010-03
1 10038U 26877LG  26075.70033565  .00000000  00000+0  00000-0 0  9990
2 10038  45.0000 108.0000 0000000   0.0000 288.0000 14.60983543    14
CTC1_L_00310010-04
1 10039U 22042SA  26075.70033565  .00000000  00000+0  00000-0 0  9991
2 10039  45.0000 108.0000 0000000   0.0000  18.0000 14.60983543    16
CTC1_L_00310011-01
1 10040U 24100MB  26075.70033565  .00000000  00000+0  00000-0 0  9990
2 10040  45.0000 120.0000 0000000   0.0000 120.0000 14.60983543    16
CTC1_L_00310011-02
1 10041U 25501KZ  26075.70033565  .00000000  00000+0  00000-0 0  9997
2 10041  45.0000 120.0000 0000000   0.0000 210.0000 14.60983543    17
CTC1_L_00310011-03
1 10042U 25101TP  26075.70033565  .00000000  00000+0  00000-0 0  9994
2 10042  45.0000 120.0000 0000000   0.0000 300.0000 14.60983543    18
CTC1_L_00310011-04
1 10043U 24536XL  26075.70033565  .00000000  00000+0  00000-0 0  9996
2 10043  45.0000 120.0000 0000000   0.0000  30.0000 14.60983543    19
CTC1_L_00310012-01
1 10044U 25189XP  26075.70033565  .00000000  00000+0  00000-0 0  9992
2 10044  45.0000 132.0000 0000000   0.0000 132.0000 14.60983543    16
CTC1_L_00310012-02
1 10045U 26314GW  26075.70033565  .00000000  00000+0  00000-0 0  9994
2 10045  45.0000 132.0000 0000000   0.0000 222.0000 14.60983543    17
CTC1_L_00310012-03
1 10046U 24178OU  26075.70033565  .00000000  00000+0  00000-0 0  9991
2 10046  45.0000 132.0000 0000000   0.0000 312.0000 14.60983543    18
CTC1_L_00310012-04
1 10047U 23755FO  26075.70033565  .00000000  00000+0  00000-0 0  9992
2 10047  45.0000 132.0000 0000000   0.0000  42.0000 14.60983543    19
CTC1_L_00310013-01
1 10048U 26531YB  26075.70033565  .00000000  00000+0  00000-0 0  9998
2 10048  45.0000 144.0000 0000000   0.0000 144.0000 14.60983543    16
CTC1_L_00310013-02
1 10049U 25994WI  26075.70033565  .00000000  00000+0  00000-0 0  9991
2 10049  45.0000 144.0000 0000000   0.0000 234.0000 14.60983543    17
CTC1_L_00310013-03
1 10050U 23176CQ  26075.70033565  .00000000  00000+0  00000-0 0  9993
2 10050  45.0000 144.0000 0000000   0.0000 324.0000 14.60983543    19
CTC1_L_00310013-04
1 10051U 24525FX  26075.70033565  .00000000  00000+0  00000-0 0  9993
2 10051  45.0000 144.0000 0000000   0.0000  54.0000 14.60983543    10
CTC1_L_00310014-01
1 10052U 25383EF  26075.70033565  .00000000  00000+0  00000-0 0  9997
2 10052  45.0000 156.0000 0000000   0.0000 156.0000 14.60983543    17
CTC1_L_00310014-02
1 10053U 25450ZX  26075.70033565  .00000000  00000+0  00000-0 0  9993
2 10053  45.0000 156.0000 0000000   0.0000 246.0000 14.60983543    18
CTC1_L_00310014-03
1 10054U 22143PH  26075.70033565  .00000000  00000+0  00000-0 0  9990
2 10054  45.0000 156.0000 0000000   0.0000 336.0000 14.60983543    19
CTC1_L_00310014-04
1 10055U 26966CP  26075.70033565  .00000000  00000+0  00000-0 0  9998
2 10055  45.0000 156.0000 0000000   0.0000  66.0000 14.60983543    10
CTC1_L_00310015-01
1 10056U 24556JJ  26075.70033565  .00000000  00000+0  00000-0 0  9992
2 10056  45.0000 168.0000 0000000   0.0000 168.0000 14.60983543    17
CTC1_L_00310015-02
1 10057U 26665T   26075.70033565  .00000000  00000+0  00000-0 0  9996
2 10057  45.0000 168.0000 0000000   0.0000 258.0000 14.60983543    18
CTC1_L_00310015-03
1 10058U 26693HC  26075.70033565  .00000000  00000+0  00000-0 0  9998
2 10058  45.0000 168.0000 0000000   0.0000 348.0000 14.60983543    19
CTC1_L_00310015-04
1 10059U 24698KP  26075.70033565  .00000000  00000+0  00000-0 0  9992
2 10059  45.0000 168.0000 0000000   0.0000  78.0000 14.60983543    10
CTC1_L_00310016-01
1 10060U 23121GU  26075.70033565  .00000000  00000+0  00000-0 0  9994
2 10060  45.0000 180.0000 0000000   0.0000 180.0000 14.60983543    10
CTC1_L_00310016-02
1 10061U 23621PJ  26075.70033565  .00000000  00000+0  00000-0 0  9990
2 10061  45.0000 180.0000 0000000   0.0000 270.0000 14.60983543    11
